{"type": "FeatureCollection", "features": [ {"type": "Feature", "properties": {"norad_id": 66629, "name": "STARLINK-35956", "group": "last-30-days", "lat": 27.915820722506066, "lon": -169.70271864883722, "alt_km": 415.070392458023, "timestamp": "2025-12-16T23:36:34.923471+00:00", "meta": {"OBJECT_NAME": "STARLINK-35956", "OBJECT_ID": "2025-271N", "EPOCH": "2025-12-16T06:00:02.999808", "MEAN_MOTION": 15.49279521, "ECCENTRICITY": 8.197e-05, "INCLINATION": 53.1588, "RA_OF_ASC_NODE": 170.4008, "ARG_OF_PERICENTER": 87.8724, "MEAN_ANOMALY": 173.4794, "EPHEMERIS_TYPE": 0, "CLASSIFICATION_TYPE": "U", "NORAD_CAT_ID": 66629, "ELEMENT_SET_NO": 999, "REV_AT_EPOCH": 480, "BSTAR": 0.00055947717, "MEAN_MOTION_DOT": 0.00030758, "MEAN_MOTION_DDOT": 0}, "tle": {"line1": "1 66629U 25271N   25350.25003472  .00030758  00000+0  55948-3 0  9990", "line2": "2 66629  53.1588 170.4008 0000819  87.8724 173.4794 15.49279521  4807"}}, "geometry": {"type": "Point", "coordinates": [-169.70271864883722, 27.915820722506066]}}, {"type": "Feature", "properties": {"norad_id": 66630, "name": "STARLINK-35949", "group": "last-30-days", "lat": 29.31549129923938, "lon": -168.21541791846795, "alt_km": 414.67777645710703, "timestamp": "2025-12-16T23:36:34.923487+00:00", "meta": {"OBJECT_NAME": "STARLINK-35949", "OBJECT_ID": "2025-271P", "EPOCH": "2025-12-16T06:00:02.999808", "MEAN_MOTION": 15.49278411, "ECCENTRICITY": 9.878e-05, "INCLINATION": 53.1589, "RA_OF_ASC_NODE": 170.3956, "ARG_OF_PERICENTER": 78.3504, "MEAN_ANOMALY": 184.9183, "EPHEMERIS_TYPE": 0, "CLASSIFICATION_TYPE": "U", "NORAD_CAT_ID": 66630, "ELEMENT_SET_NO": 999, "REV_AT_EPOCH": 480, "BSTAR": 0.00057035196, "MEAN_MOTION_DOT": 0.00031366, "MEAN_MOTION_DDOT": 0}, "tle": {"line1": "1 66630U 25271P   25350.25003472  .00031366  00000+0  57035-3 0  9997", "line2": "2 66630  53.1589 170.3956 0000987  78.3504 184.9183 15.49278411  4804"}}, "geometry": {"type": "Point", "coordinates": [-168.21541791846795, 29.31549129923938]}}, {"type": "Feature", "properties": {"norad_id": 66631, "name": "STARLINK-35965", "group": "last-30-days", "lat": 30.703107449487952, "lon": -166.67890668074386, "alt_km": 414.40727697066086, "timestamp": "2025-12-16T23:36:34.923497+00:00", "meta": {"OBJECT_NAME": "STARLINK-35965", "OBJECT_ID": "2025-271Q", "EPOCH": "2025-12-16T06:00:02.999808", "MEAN_MOTION": 15.4927836, "ECCENTRICITY": 8.408e-05, "INCLINATION": 53.1588, "RA_OF_ASC_NODE": 170.3925, "ARG_OF_PERICENTER": 55.4717, "MEAN_ANOMALY": 209.7162, "EPHEMERIS_TYPE": 0, "CLASSIFICATION_TYPE": "U", "NORAD_CAT_ID": 66631, "ELEMENT_SET_NO": 999, "REV_AT_EPOCH": 480, "BSTAR": 0.0005542935, "MEAN_MOTION_DOT": 0.00030466, "MEAN_MOTION_DDOT": 0}, "tle": {"line1": "1 66631U 25271Q   25350.25003472  .00030466  00000+0  55429-3 0  9993", "line2": "2 66631  53.1588 170.3925 0000840  55.4717 209.7162 15.49278360  4806"}}, "geometry": {"type": "Point", "coordinates": [-166.67890668074386, 30.703107449487952]}}, {"type": "Feature", "properties": {"norad_id": 66632, "name": "STARLINK-35973", "group": "last-30-days", "lat": -26.42713673164997, "lon": 145.15128775447604, "alt_km": 451.4293044896722, "timestamp": "2025-12-16T23:36:34.923513+00:00", "meta": {"OBJECT_NAME": "STARLINK-35973", "OBJECT_ID": "2025-271R", "EPOCH": "2025-12-16T06:00:02.999808", "MEAN_MOTION": 15.39604516, "ECCENTRICITY": 0.00014743, "INCLINATION": 53.1587, "RA_OF_ASC_NODE": 170.487, "ARG_OF_PERICENTER": 93.5307, "MEAN_ANOMALY": 123.837, "EPHEMERIS_TYPE": 0, "CLASSIFICATION_TYPE": "U", "NORAD_CAT_ID": 66632, "ELEMENT_SET_NO": 999, "REV_AT_EPOCH": 474, "BSTAR": 0.00048328797, "MEAN_MOTION_DOT": 0.0001897, "MEAN_MOTION_DDOT": 0}, "tle": {"line1": "1 66632U 25271R   25350.25003472  .00018970  00000+0  48329-3 0  9991", "line2": "2 66632  53.1587 170.4870 0001474  93.5307 123.8370 15.39604516  4743"}}, "geometry": {"type": "Point", "coordinates": [145.15128775447604, -26.42713673164997]}}, {"type": "Feature", "properties": {"norad_id": 66633, "name": "STARLINK-35948", "group": "last-30-days", "lat": -25.06575928839304, "lon": 146.49628152071713, "alt_km": 451.1224150740409, "timestamp": "2025-12-16T23:36:34.923554+00:00", "meta": {"OBJECT_NAME": "STARLINK-35948", "OBJECT_ID": "2025-271S", "EPOCH": "2025-12-16T06:00:02.999808", "MEAN_MOTION": 15.39597196, "ECCENTRICITY": 0.00010393, "INCLINATION": 53.1589, "RA_OF_ASC_NODE": 170.4822, "ARG_OF_PERICENTER": 90.524, "MEAN_ANOMALY": 128.6904, "EPHEMERIS_TYPE": 0, "CLASSIFICATION_TYPE": "U", "NORAD_CAT_ID": 66633, "ELEMENT_SET_NO": 999, "REV_AT_EPOCH": 480, "BSTAR": 0.00043524171, "MEAN_MOTION_DOT": 0.00017036, "MEAN_MOTION_DDOT": 0}, "tle": {"line1": "1 66633U 25271S   25350.25003472  .00017036  00000+0  43524-3 0  9996", "line2": "2 66633  53.1589 170.4822 0001039  90.5240 128.6904 15.39597196  4801"}}, "geometry": {"type": "Point", "coordinates": [146.49628152071713, -25.06575928839304]}}, {"type": "Feature", "properties": {"norad_id": 66634, "name": "STARLINK-35967", "group": "last-30-days", "lat": -5.886018730574224, "lon": 162.54166260707066, "alt_km": 453.5121749203481, "timestamp": "2025-12-16T23:36:34.923569+00:00", "meta": {"OBJECT_NAME": "STARLINK-35967", "OBJECT_ID": "2025-271T", "EPOCH": "2025-12-16T06:00:02.999808", "MEAN_MOTION": 15.41126321, "ECCENTRICITY": 0.00011928, "INCLINATION": 53.1594, "RA_OF_ASC_NODE": 170.4319, "ARG_OF_PERICENTER": 57.9374, "MEAN_ANOMALY": 186.1708, "EPHEMERIS_TYPE": 0, "CLASSIFICATION_TYPE": "U", "NORAD_CAT_ID": 66634, "ELEMENT_SET_NO": 999, "REV_AT_EPOCH": 473, "BSTAR": -0.054362424, "MEAN_MOTION_DOT": -0.0203227, "MEAN_MOTION_DDOT": 0}, "tle": {"line1": "1 66634U 25271T   25350.25003472 -.02032270  00000+0 -54362-1 0  9998", "line2": "2 66634  53.1594 170.4319 0001192  57.9374 186.1708 15.41126321  4738"}}, "geometry": {"type": "Point", "coordinates": [162.54166260707066, -5.886018730574224]}}, {"type": "Feature", "properties": {"norad_id": 66635, "name": "STARLINK-35955", "group": "last-30-days", "lat": 28.77207310790014, "lon": -168.80102123896665, "alt_km": 429.6730323973079, "timestamp": "2025-12-16T23:36:34.923611+00:00", "meta": {"OBJECT_NAME": "STARLINK-35955", "OBJECT_ID": "2025-271U", "EPOCH": "2025-12-16T06:00:02.999808", "MEAN_MOTION": 15.47552793, "ECCENTRICITY": 0.00010553, "INCLINATION": 53.1589, "RA_OF_ASC_NODE": 170.378, "ARG_OF_PERICENTER": 110.2286, "MEAN_ANOMALY": 161.33, "EPHEMERIS_TYPE": 0, "CLASSIFICATION_TYPE": "U", "NORAD_CAT_ID": 66635, "ELEMENT_SET_NO": 999, "REV_AT_EPOCH": 480, "BSTAR": -0.045123966, "MEAN_MOTION_DOT": -0.0209494, "MEAN_MOTION_DDOT": 0}, "tle": {"line1": "1 66635U 25271U   25350.25003472 -.02094940  00000+0 -45124-1 0  9997", "line2": "2 66635  53.1589 170.3780 0001055 110.2286 161.3300 15.47552793  4800"}}, "geometry": {"type": "Point", "coordinates": [-168.80102123896665, 28.77207310790014]}}, {"type": "Feature", "properties": {"norad_id": 66636, "name": "STARLINK-35968", "group": "last-30-days", "lat": 15.328393145218415, "lon": 178.78022027432155, "alt_km": 442.19673056009015, "timestamp": "2025-12-16T23:36:34.923633+00:00", "meta": {"OBJECT_NAME": "STARLINK-35968", "OBJECT_ID": "2025-271V", "EPOCH": "2025-12-16T06:00:02.999808", "MEAN_MOTION": 15.43941756, "ECCENTRICITY": 0.00014264, "INCLINATION": 53.1588, "RA_OF_ASC_NODE": 170.3932, "ARG_OF_PERICENTER": 100.4523, "MEAN_ANOMALY": 162.8157, "EPHEMERIS_TYPE": 0, "CLASSIFICATION_TYPE": "U", "NORAD_CAT_ID": 66636, "ELEMENT_SET_NO": 999, "REV_AT_EPOCH": 480, "BSTAR": -0.048964194, "MEAN_MOTION_DOT": -0.02015787, "MEAN_MOTION_DDOT": 0}, "tle": {"line1": "1 66636U 25271V   25350.25003472 -.02015787  00000+0 -48964-1 0  9995", "line2": "2 66636  53.1588 170.3932 0001426 100.4523 162.8157 15.43941756  4809"}}, "geometry": {"type": "Point", "coordinates": [178.78022027432155, 15.328393145218415]}}, {"type": "Feature", "properties": {"norad_id": 66637, "name": "STARLINK-35953", "group": "last-30-days", "lat": 37.59960223266758, "lon": -157.8720912142468, "alt_km": 417.5816240102986, "timestamp": "2025-12-16T23:36:34.923644+00:00", "meta": {"OBJECT_NAME": "STARLINK-35953", "OBJECT_ID": "2025-271W", "EPOCH": "2025-12-16T06:00:02.999808", "MEAN_MOTION": 15.49681038, "ECCENTRICITY": 7.876e-05, "INCLINATION": 53.1588, "RA_OF_ASC_NODE": 170.3678, "ARG_OF_PERICENTER": 77.715, "MEAN_ANOMALY": 198.8986, "EPHEMERIS_TYPE": 0, "CLASSIFICATION_TYPE": "U", "NORAD_CAT_ID": 66637, "ELEMENT_SET_NO": 999, "REV_AT_EPOCH": 480, "BSTAR": -0.022443583, "MEAN_MOTION_DOT": -0.011564, "MEAN_MOTION_DDOT": 0}, "tle": {"line1": "1 66637U 25271W   25350.25003472 -.01156400  00000+0 -22444-1 0  9998", "line2": "2 66637  53.1588 170.3678 0000787  77.7150 198.8986 15.49681038  4807"}}, "geometry": {"type": "Point", "coordinates": [-157.8720912142468, 37.59960223266758]}}, {"type": "Feature", "properties": {"norad_id": 66638, "name": "STARLINK-35972", "group": "last-30-days", "lat": 39.77320776428463, "lon": -154.5314873175575, "alt_km": 413.04800211781003, "timestamp": "2025-12-16T23:36:34.923665+00:00", "meta": {"OBJECT_NAME": "STARLINK-35972", "OBJECT_ID": "2025-271X", "EPOCH": "2025-12-16T06:00:02.999808", "MEAN_MOTION": 15.49279737, "ECCENTRICITY": 7.093e-05, "INCLINATION": 53.1589, "RA_OF_ASC_NODE": 170.3634, "ARG_OF_PERICENTER": 74.5614, "MEAN_ANOMALY": 204.038, "EPHEMERIS_TYPE": 0, "CLASSIFICATION_TYPE": "U", "NORAD_CAT_ID": 66638, "ELEMENT_SET_NO": 999, "REV_AT_EPOCH": 480, "BSTAR": 0.00059587624, "MEAN_MOTION_DOT": 0.00032797, "MEAN_MOTION_DDOT": 0}, "tle": {"line1": "1 66638U 25271X   25350.25003472  .00032797  00000+0  59588-3 0  9999", "line2": "2 66638  53.1589 170.3634 0000709  74.5614 204.0380 15.49279737  4802"}}, "geometry": {"type": "Point", "coordinates": [-154.5314873175575, 39.77320776428463]}}]}